HAWK-A                  
1 43765U 18099H   26068.67628545  .00008617  00000+0  36104-3 0  9995
2 43765  97.4051 122.2425 0034260 275.5523  84.1807 15.23231043397949
STARLINK-30703          
1 57954U 23148V   26068.17233657 -.00000135  00000+0  75500-5 0  9995
2 57954  53.1630  16.5742 0000989  92.0491 268.0623 15.30189336138486
